KAZSTSAT                
1 43783U 18099AB  26068.61895971  .00001354  00000+0  11446-3 0  9991
2 43783  97.4396 105.0128 0006528  11.1145 349.0222 14.99620503396386
STARLINK-5812           
1 55774U 23028AK  26068.81954901  .00001706  00000+0  15065-3 0  9995
2 55774  69.9995 224.0828 0002870 264.2118  95.8714 14.98342308166553
